{"type":"FeatureCollection","features":[{"type":"Feature","properties":{"PARQUE":"ALTA BLANCA","ZONA":"ZONA NORTE","LOCALIDAD":"Usaquén","TIPO":"PARQUE ZONAL","CODIGO":"01-075"},"geometry":{"type":"MultiPolygon","coordinates":[[[[-74.028205,4.733643],[-74.029243,4.73389],[-74.028981,4.734871],[-74.02814,4.734635],[-74.02817,4.734107],[-74.028049,4.734073],[-74.028205,4.733643]]]]}},{"type":"Feature","properties":{"PARQUE":"SERVITA","ZONA":"ZONA NORTE","LOCALIDAD":"Usaquén","TIPO":"PARQUE ZONAL","CODIGO":"01-023"},"geometry":{"type":"MultiPolygon","coordinates":[[[[-74.024086,4.742872],[-74.024042,4.742797],[-74.024282,4.742849],[-74.024414,4.742166],[-74.024597,4.742202],[-74.024723,4.741535],[-74.025719,4.741734],[-74.02539,4.743338],[-74.024041,4.74323],[-74.024086,4.742872]]]]}},{"type":"Feature","properties":{"PARQUE":"POLO COUNTRY CLUB","ZONA":"ZONA NORTE","LOCALIDAD":"Usaquén","TIPO":"PARQUE METROPOLITANO","CODIGO":"01-1000"},"geometry":{"type":"MultiPolygon","coordinates":[[[[-74.038802,4.704331],[-74.039358,4.708249],[-74.037468,4.707895],[-74.037444,4.707789],[-74.037043,4.704776],[-74.038802,4.704331]]]]}},{"type":"Feature","properties":{"PARQUE":"NUEVA AUTOPISTA","ZONA":"ZONA NORTE","LOCALIDAD":"Usaquén","TIPO":"PARQUE ZONAL","CODIGO":"01-064"},"geometry":{"type":"MultiPolygon","coordinates":[[[[-74.048881,4.721755],[-74.048821,4.721886],[-74.048314,4.721801],[-74.048475,4.72085],[-74.05031,4.721162],[-74.050155,4.722109],[-74.048881,4.721755]]],[[[-74.047266,4.721425],[-74.047071,4.721399],[-74.047049,4.721534],[-74.046721,4.721481],[-74.046871,4.720485],[-74.048352,4.720745],[-74.048205,4.721648],[-74.047266,4.721425]]],[[[-74.050309,4.721982],[-74.050457,4.721096],[-74.051,4.721186],[-74.05085,4.722074],[-74.050309,4.721982]]]]}},{"type":"Feature","properties":{"PARQUE":"VIRREY NORTE","ZONA":"ZONA NORTE","LOCALIDAD":"Chapinero","TIPO":"PARQUE ZONAL","CODIGO":"02-014"},"geometry":{"type":"MultiPolygon","coordinates":[[[[-74.058603,4.67586],[-74.057416,4.675094],[-74.057303,4.675189],[-74.056718,4.674872],[-74.056693,4.674707],[-74.055875,4.674282],[-74.055816,4.67441],[-74.05523,4.674088],[-74.055282,4.673971],[-74.054484,4.673552],[-74.054419,4.673671],[-74.053818,4.673356],[-74.054162,4.672604],[-74.058777,4.674796],[-74.058603,4.67586]]],[[[-74.046569,4.669278],[-74.047462,4.669625],[-74.047407,4.669737],[-74.04937,4.670689],[-74.049229,4.670968],[-74.04635,4.669481],[-74.046569,4.669278]]],[[[-74.045074,4.669484],[-74.045388,4.66884],[-74.046402,4.669287],[-74.046266,4.669433],[-74.045533,4.669063],[-74.044434,4.671234],[-74.044266,4.671356],[-74.044363,4.670922],[-74.045074,4.669484]]],[[[-74.053064,4.672801],[-74.052274,4.672392],[-74.052207,4.672521],[-74.051614,4.672217],[-74.051678,4.67209],[-74.050802,4.67164],[-74.05066,4.671907],[-74.050078,4.671604],[-74.050153,4.671467],[-74.049984,4.671377],[-74.049969,4.671553],[-74.049384,4.671251],[-74.049608,4.670801],[-74.053873,4.672795],[-74.053638,4.673258],[-74.053,4.672925],[-74.053064,4.672801]],[[-74.049961,4.671275],[-74.049808,4.67119],[-74.049759,4.671279],[-74.049915,4.671357],[-74.049961,4.671275]]]]}},{"type":"Feature","properties":{"PARQUE":"SAN JOSÉ DE BAVARIA","ZONA":"ZONA NORTE","LOCALIDAD":"Suba","TIPO":"PARQUE ZONAL","CODIGO":"11-078"},"geometry":{"type":"MultiPolygon","coordinates":[[[[-74.063187,4.758142],[-74.061462,4.756947],[-74.062226,4.755928],[-74.062396,4.754867],[-74.064025,4.75527],[-74.063187,4.758142]]]]}},{"type":"Feature","properties":{"PARQUE":"CEFE FONTANAR DEL RIO","ZONA":"ZONA NORTE","LOCALIDAD":"Suba","TIPO":"PARQUE ZONAL","CODIGO":"11-368"},"geometry":{"type":"MultiPolygon","coordinates":[[[[-74.10979,4.757372],[-74.109099,4.757115],[-74.110517,4.754095],[-74.113735,4.754915],[-74.11351,4.755812],[-74.113219,4.755741],[-74.112707,4.757145],[-74.111767,4.758038],[-74.11022,4.757692],[-74.10979,4.757372]]],[[[-74.115748,4.761404],[-74.114334,4.760385],[-74.114533,4.760018],[-74.115339,4.759349],[-74.117153,4.761317],[-74.11635,4.76171],[-74.115748,4.761404]]]]}},{"type":"Feature","properties":{"PARQUE":"TIBABUYES","ZONA":"ZONA NORTE","LOCALIDAD":"Suba","TIPO":"PARQUE ZONAL","CODIGO":"11-212"},"geometry":{"type":"MultiPolygon","coordinates":[[[[-74.110018,4.746605],[-74.109053,4.745719],[-74.108869,4.745905],[-74.108503,4.745531],[-74.110436,4.746038],[-74.110382,4.74651],[-74.110018,4.746605]]]]}},{"type":"Feature","properties":{"PARQUE":"TIBABUYES","ZONA":"ZONA NORTE","LOCALIDAD":"Suba","TIPO":"PARQUE VECINAL","CODIGO":"11-1199"},"geometry":{"type":"MultiPolygon","coordinates":[[[[-74.105187,4.731837],[-74.105339,4.731591],[-74.106142,4.732052],[-74.105945,4.73237],[-74.105187,4.731837]]]]}},{"type":"Feature","properties":{"PARQUE":"LA GAITANA","ZONA":"ZONA NORTE","LOCALIDAD":"Suba","TIPO":"PARQUE ZONAL","CODIGO":"11-205"},"geometry":{"type":"MultiPolygon","coordinates":[[[[-74.109062,4.739648],[-74.109165,4.739398],[-74.108841,4.739268],[-74.108805,4.73913],[-74.10907,4.738925],[-74.109353,4.73839],[-74.108842,4.738111],[-74.10925,4.737887],[-74.109879,4.738434],[-74.110158,4.739737],[-74.111057,4.740324],[-74.110318,4.740896],[-74.109724,4.741125],[-74.109393,4.741736],[-74.108118,4.742512],[-74.107954,4.742311],[-74.109062,4.739648]]]]}},{"type":"Feature","properties":{"PARQUE":"CASABLANCA","ZONA":"ZONA NORTE","LOCALIDAD":"Suba","TIPO":"PARQUE ZONAL","CODIGO":"11-069"},"geometry":{"type":"MultiPolygon","coordinates":[[[[-74.074339,4.736067],[-74.074423,4.735881],[-74.075049,4.736067],[-74.075993,4.736031],[-74.076199,4.735845],[-74.076301,4.735887],[-74.076342,4.735718],[-74.076193,4.735507],[-74.076642,4.735301],[-74.076756,4.735401],[-74.076698,4.73567],[-74.076943,4.735673],[-74.076835,4.736492],[-74.076498,4.737391],[-74.075041,4.736944],[-74.075022,4.736287],[-74.074304,4.736263],[-74.074339,4.736067]]]]}},{"type":"Feature","properties":{"PARQUE":"COMETAS","ZONA":"ZONA NORTE","LOCALIDAD":"Suba","TIPO":"PARQUE METROPOLITANO","CODIGO":"11-204"},"geometry":{"type":"MultiPolygon","coordinates":[[[[-74.082869,4.712977],[-74.083146,4.71284],[-74.083226,4.713342],[-74.082988,4.713229],[-74.082869,4.712977]]],[[[-74.0866,4.713624],[-74.086236,4.713285],[-74.086696,4.713267],[-74.086702,4.71351],[-74.086929,4.713555],[-74.086966,4.713679],[-74.0866,4.713624]]],[[[-74.087308,4.714681],[-74.087669,4.713961],[-74.087675,4.714208],[-74.087413,4.714625],[-74.087617,4.715142],[-74.087182,4.715347],[-74.087308,4.714681]]],[[[-74.082547,4.716976],[-74.082823,4.716315],[-74.083511,4.716118],[-74.083204,4.71415],[-74.083165,4.713528],[-74.083268,4.713519],[-74.082926,4.711509],[-74.084802,4.712225],[-74.085565,4.712707],[-74.086552,4.713757],[-74.08701,4.7138],[-74.086728,4.714283],[-74.087278,4.714661],[-74.086939,4.716288],[-74.087455,4.716451],[-74.087746,4.716849],[-74.088405,4.716385],[-74.088532,4.716564],[-74.087866,4.717012],[-74.088035,4.717224],[-74.087634,4.717502],[-74.085402,4.717296],[-74.083147,4.716918],[-74.082185,4.717846],[-74.082547,4.716976]]]]}},{"type":"Feature","properties":{"PARQUE":"LA FLORIDA","ZONA":"ZONA NORTE","LOCALIDAD":"Engativá","TIPO":"PARQUE REGIONAL","CODIGO":"10-311"},"geometry":{"type":"MultiPolygon","coordinates":[[[[-74.140566,4.73714],[-74.139671,4.735591],[-74.137612,4.73095],[-74.139239,4.730148],[-74.140939,4.729492],[-74.142103,4.7293],[-74.143001,4.728969],[-74.148814,4.725897],[-74.149366,4.725502],[-74.150795,4.723032],[-74.151608,4.722944],[-74.153543,4.723407],[-74.156071,4.723561],[-74.157221,4.72407],[-74.157287,4.724291],[-74.156693,4.724908],[-74.156561,4.725614],[-74.156891,4.725724],[-74.157176,4.726472],[-74.157793,4.726949],[-74.157591,4.72708],[-74.156798,4.727037],[-74.155642,4.726423],[-74.154728,4.726951],[-74.155344,4.73031],[-74.155598,4.73087],[-74.152094,4.732315],[-74.151427,4.732291],[-74.150489,4.732524],[-74.149467,4.73301],[-74.148631,4.733744],[-74.140566,4.73714]]]]}},{"type":"Feature","properties":{"PARQUE":"LA FLORIDA","ZONA":"ZONA NORTE","LOCALIDAD":"Engativá","TIPO":"PARQUE VECINAL","CODIGO":"10-105"},"geometry":{"type":"MultiPolygon","coordinates":[[[[-74.110838,4.692863],[-74.111426,4.693163],[-74.111039,4.693786],[-74.110481,4.693447],[-74.110838,4.692863]]]]}},{"type":"Feature","properties":{"PARQUE":"VILLA LUZ","ZONA":"ZONA NORTE","LOCALIDAD":"Engativá","TIPO":"PARQUE ZONAL","CODIGO":"10-018"},"geometry":{"type":"MultiPolygon","coordinates":[[[[-74.108627,4.68308],[-74.108485,4.682972],[-74.108366,4.683126],[-74.108186,4.68299],[-74.108305,4.682831],[-74.107715,4.682379],[-74.107595,4.682538],[-74.107502,4.682469],[-74.107417,4.682404],[-74.107531,4.682245],[-74.107082,4.681901],[-74.107922,4.680799],[-74.10837,4.681144],[-74.108475,4.681006],[-74.108657,4.681145],[-74.108513,4.681322],[-74.109114,4.681785],[-74.109216,4.681649],[-74.109394,4.681786],[-74.109258,4.681962],[-74.109852,4.682429],[-74.109958,4.682293],[-74.110189,4.68247],[-74.1092,4.683766],[-74.108956,4.683579],[-74.10908,4.683422],[-74.108627,4.68308]]]]}},{"type":"Feature","properties":{"PARQUE":"VILLAS DE GRANADA","ZONA":"ZONA NORTE","LOCALIDAD":"Engativá","TIPO":"PARQUE ZONAL","CODIGO":"10-102"},"geometry":{"type":"MultiPolygon","coordinates":[[[[-74.12141,4.716557],[-74.121213,4.716286],[-74.122401,4.715454],[-74.123513,4.716409],[-74.122264,4.717448],[-74.12141,4.716557]]]]}},{"type":"Feature","properties":{"PARQUE":"EL CARMELO","ZONA":"ZONA NORTE","LOCALIDAD":"Engativá","TIPO":"PARQUE ZONAL","CODIGO":"10-169"},"geometry":{"type":"MultiPolygon","coordinates":[[[[-74.118957,4.705757],[-74.11961,4.704826],[-74.118228,4.703746],[-74.118443,4.703493],[-74.118601,4.703626],[-74.121276,4.703702],[-74.121085,4.703909],[-74.120983,4.703855],[-74.119977,4.70574],[-74.119521,4.705385],[-74.119154,4.705925],[-74.118957,4.705757]]]]}},{"type":"Feature","properties":{"PARQUE":"ESTADIO TABORA","ZONA":"ZONA NORTE","LOCALIDAD":"Engativá","TIPO":"PARQUE ZONAL","CODIGO":"10-192"},"geometry":{"type":"MultiPolygon","coordinates":[[[[-74.096719,4.693314],[-74.097507,4.692288],[-74.098214,4.692846],[-74.097318,4.693902],[-74.0974,4.693967],[-74.097119,4.694324],[-74.096455,4.693787],[-74.096719,4.693314]]]]}},{"type":"Feature","properties":{"PARQUE":"LA SERENA","ZONA":"ZONA NORTE","LOCALIDAD":"Engativá","TIPO":"PARQUE ZONAL","CODIGO":"10-223"},"geometry":{"type":"MultiPolygon","coordinates":[[[[-74.093526,4.710763],[-74.091525,4.709382],[-74.092135,4.708713],[-74.094014,4.710379],[-74.09365,4.710872],[-74.093526,4.710763]]]]}},{"type":"Feature","properties":{"PARQUE":"SAN ANDRÉS","ZONA":"ZONA NORTE","LOCALIDAD":"Engativá","TIPO":"PARQUE ZONAL","CODIGO":"10-234"},"geometry":{"type":"MultiPolygon","coordinates":[[[[-74.109731,4.711663],[-74.111937,4.711618],[-74.112667,4.712309],[-74.110809,4.714214],[-74.108995,4.712475],[-74.109731,4.711663]]]]}},{"type":"Feature","properties":{"PARQUE":"SAN ANDRÉS","ZONA":"ZONA NORTE","LOCALIDAD":"Engativá","TIPO":"PARQUE VECINAL","CODIGO":"08-522"},"geometry":{"type":"MultiPolygon","coordinates":[[[[-74.142286,4.597278],[-74.142967,4.59777],[-74.142795,4.598048],[-74.142072,4.597573],[-74.142286,4.597278]]]]}},{"type":"Feature","properties":{"PARQUE":"SAN ANDRÉS","ZONA":"ZONA NORTE","LOCALIDAD":"Engativá","TIPO":"PARQUE VECINAL","CODIGO":"08-149"},"geometry":{"type":"MultiPolygon","coordinates":[[[[-74.142795,4.599617],[-74.143143,4.599716],[-74.142904,4.600361],[-74.142567,4.600232],[-74.142795,4.599617]]]]}},{"type":"Feature","properties":{"PARQUE":"JUAN AMARILLO","ZONA":"ZONA NORTE","LOCALIDAD":"Engativá","TIPO":"PARQUE ZONAL","CODIGO":"10-171"},"geometry":{"type":"MultiPolygon","coordinates":[[[[-74.116657,4.734488],[-74.115476,4.73423],[-74.11483,4.733804],[-74.114371,4.732746],[-74.114238,4.731932],[-74.113696,4.731631],[-74.11294,4.730589],[-74.112457,4.73024],[-74.112136,4.729786],[-74.110994,4.728922],[-74.110645,4.728351],[-74.110699,4.727969],[-74.110115,4.727747],[-74.108875,4.72644],[-74.108307,4.726751],[-74.107752,4.726304],[-74.107852,4.725691],[-74.107421,4.72575],[-74.10718,4.725477],[-74.106713,4.724632],[-74.106515,4.723861],[-74.107203,4.723417],[-74.107991,4.723916],[-74.108687,4.725175],[-74.110591,4.72667],[-74.111899,4.728603],[-74.112454,4.728917],[-74.11327,4.72977],[-74.114702,4.730772],[-74.115436,4.731807],[-74.11585,4.732743],[-74.116725,4.734201],[-74.117218,4.734615],[-74.117138,4.734686],[-74.116657,4.734488]],[[-74.109118,4.726341],[-74.109619,4.726877],[-74.1098,4.726702],[-74.110114,4.727034],[-74.109925,4.72721],[-74.110325,4.727639],[-74.110785,4.727225],[-74.109569,4.725925],[-74.109118,4.726341]]]]}},{"type":"Feature","properties":{"PARQUE":"BONANZA","ZONA":"ZONA NORTE","LOCALIDAD":"Engativá","TIPO":"PARQUE VECINAL","CODIGO":"10-349"},"geometry":{"type":"MultiPolygon","coordinates":[[[[-74.094264,4.687227],[-74.094191,4.687141],[-74.094413,4.686895],[-74.094455,4.687225],[-74.094264,4.687227]]]]}},{"type":"Feature","properties":{"PARQUE":"PTAR SALITRE","ZONA":"ZONA NORTE","LOCALIDAD":"Engativá","TIPO":"PARQUE METROPOLITANO","CODIGO":"10-531"},"geometry":{"type":"MultiPolygon","coordinates":[[[[-74.121948,4.729148],[-74.123536,4.727969],[-74.1243,4.728841],[-74.124742,4.729005],[-74.124813,4.729855],[-74.126413,4.734014],[-74.126322,4.734728],[-74.125744,4.73474],[-74.125671,4.73409],[-74.125294,4.734195],[-74.123902,4.733752],[-74.123598,4.73349],[-74.123778,4.733303],[-74.123717,4.733236],[-74.121653,4.73202],[-74.121498,4.732419],[-74.121402,4.732392],[-74.121518,4.73199],[-74.11997,4.731924],[-74.119466,4.73254],[-74.119197,4.732491],[-74.119055,4.732592],[-74.119521,4.73122],[-74.121948,4.729148]]],[[[-74.126393,4.733253],[-74.124988,4.729499],[-74.125676,4.730119],[-74.12614,4.73105],[-74.126478,4.732759],[-74.126393,4.733253]]]]}},{"type":"Feature","properties":{"PARQUE":"CEREZOS","ZONA":"ZONA NORTE","LOCALIDAD":"Engativá","TIPO":"PARQUE ZONAL","CODIGO":"10-812"},"geometry":{"type":"MultiPolygon","coordinates":[[[[-74.129715,4.71583],[-74.130299,4.715304],[-74.13041,4.714875],[-74.130293,4.714425],[-74.130825,4.713866],[-74.131417,4.71416],[-74.131472,4.714934],[-74.131117,4.715199],[-74.130962,4.715786],[-74.13076,4.715754],[-74.130404,4.715933],[-74.130136,4.716236],[-74.129416,4.71604],[-74.129715,4.71583]]],[[[-74.129685,4.71641],[-74.129541,4.716262],[-74.130032,4.716395],[-74.130132,4.716699],[-74.130307,4.716785],[-74.13029,4.716939],[-74.130785,4.71737],[-74.130873,4.71763],[-74.129685,4.71641]]]]}},{"type":"Feature","properties":{"PARQUE":"PISTA DE BMX","ZONA":"GRANDES ESCENARIOS","LOCALIDAD":"Barrios Unidos","TIPO":"PARQUE METROPOLITANO","CODIGO":"12-091"},"geometry":{"type":"MultiPolygon","coordinates":[[[[-74.088078,4.670285],[-74.086143,4.667252],[-74.086538,4.666769],[-74.087274,4.665331],[-74.087158,4.664959],[-74.08721,4.664413],[-74.086775,4.664215],[-74.087949,4.661664],[-74.089442,4.662204],[-74.09004,4.661875],[-74.090937,4.663171],[-74.090357,4.663507],[-74.090427,4.663618],[-74.089795,4.663638],[-74.088995,4.666307],[-74.089283,4.66755],[-74.089972,4.668061],[-74.089329,4.668988],[-74.088097,4.670193],[-74.088341,4.670481],[-74.08951,4.671074],[-74.089408,4.671254],[-74.08901,4.671352],[-74.088078,4.670285]]]]}},{"type":"Feature","properties":{"PARQUE":"ALCÁZARES","ZONA":"GRANDES ESCENARIOS","LOCALIDAD":"Barrios Unidos","TIPO":"PARQUE ZONAL","CODIGO":"12-015"},"geometry":{"type":"MultiPolygon","coordinates":[[[[-74.068705,4.662546],[-74.067872,4.662018],[-74.068118,4.661634],[-74.070065,4.662689],[-74.069585,4.663396],[-74.068606,4.662684],[-74.068705,4.662546]]]]}},{"type":"Feature","properties":{"PARQUE":"GIMNASIO DEL NORTE","ZONA":"GRANDES ESCENARIOS","LOCALIDAD":"Barrios Unidos","TIPO":"PARQUE ZONAL","CODIGO":"12-023"},"geometry":{"type":"MultiPolygon","coordinates":[[[[-74.074779,4.653677],[-74.075173,4.653749],[-74.075219,4.653478],[-74.075714,4.65357],[-74.075587,4.654276],[-74.074691,4.654131],[-74.074779,4.653677]]]]}},{"type":"Feature","properties":{"PARQUE":"LOS NOVIOS","ZONA":"GRANDES ESCENARIOS","LOCALIDAD":"Barrios Unidos","TIPO":"PARQUE METROPOLITANO","CODIGO":"12-092"},"geometry":{"type":"MultiPolygon","coordinates":[[[[-74.083092,4.653717],[-74.082915,4.654558],[-74.082579,4.655289],[-74.082607,4.655872],[-74.08277,4.655906],[-74.081816,4.656573],[-74.082028,4.656944],[-74.07838,4.658414],[-74.080707,4.653037],[-74.081061,4.652877],[-74.081445,4.652949],[-74.081466,4.652825],[-74.081902,4.652921],[-74.082749,4.653262],[-74.083092,4.653717]]]]}},{"type":"Feature","properties":{"PARQUE":"PARQUE LOS NIÑOS","ZONA":"GRANDES ESCENARIOS","LOCALIDAD":"Barrios Unidos","TIPO":"PARQUE METROPOLITANO","CODIGO":"12-141"},"geometry":{"type":"MultiPolygon","coordinates":[[[[-74.088592,4.66189],[-74.087949,4.661664],[-74.088583,4.66028],[-74.088789,4.660164],[-74.09004,4.661875],[-74.089442,4.662204],[-74.088592,4.66189]]]]}},{"type":"Feature","properties":{"PARQUE":"PLAZA DE LOS ARTESANOS","ZONA":"GRANDES ESCENARIOS","LOCALIDAD":"Barrios Unidos","TIPO":"PARQUE METROPOLITANO","CODIGO":"12-110"},"geometry":{"type":"MultiPolygon","coordinates":[[[[-74.084709,4.664816],[-74.085408,4.66287],[-74.086746,4.662802],[-74.085343,4.665886],[-74.084709,4.664816]]]]}},{"type":"Feature","properties":{"PARQUE":"UNIDAD DEPORTIVA EL SALITRE","ZONA":"GRANDES ESCENARIOS","LOCALIDAD":"Grandes escenarios","TIPO":"ESCENARIO DEPORTIVO","CODIGO":"10-290"},"geometry":{"type":"MultiPolygon","coordinates":[[[[-74.096877,4.668147],[-74.094475,4.666372],[-74.09409,4.665955],[-74.097691,4.661303],[-74.100621,4.663447],[-74.098879,4.665277],[-74.099068,4.665404],[-74.097151,4.668125],[-74.096877,4.668147]]]]}},{"type":"Feature","properties":{"PARQUE":"SALITRE EL GRECO","ZONA":"GRANDES ESCENARIOS","LOCALIDAD":"Grandes escenarios","TIPO":"PARQUE VECINAL","CODIGO":"13-144"},"geometry":{"type":"MultiPolygon","coordinates":[[[[-74.100969,4.650663],[-74.102073,4.652565],[-74.101445,4.651737],[-74.101436,4.651514],[-74.10117,4.65131],[-74.10124,4.651211],[-74.101131,4.651058],[-74.10079,4.650762],[-74.100969,4.650663]]]]}},{"type":"Feature","properties":{"PARQUE":"COMPLEJO ACUÁTICO","ZONA":"GRANDES ESCENARIOS","LOCALIDAD":"Grandes escenarios","TIPO":"ESCENARIO DEPORTIVO","CODIGO":"12-1000"},"geometry":{"type":"MultiPolygon","coordinates":[[[[-74.083011,4.654258],[-74.083092,4.653717],[-74.083481,4.654014],[-74.08426,4.654002],[-74.084739,4.654348],[-74.08277,4.655906],[-74.082607,4.655872],[-74.082579,4.655289],[-74.083011,4.654258]]]]}},{"type":"Feature","properties":{"PARQUE":"PALACIO DE LOS DEPORTES","ZONA":"GRANDES ESCENARIOS","LOCALIDAD":"Grandes escenarios","TIPO":"ESCENARIO DEPORTIVO","CODIGO":"12-125"},"geometry":{"type":"MultiPolygon","coordinates":[[[[-74.084545,4.654523],[-74.084739,4.654348],[-74.085707,4.655462],[-74.082028,4.656944],[-74.081816,4.656573],[-74.084545,4.654523]]]]}},{"type":"Feature","properties":{"PARQUE":"MOVISTAR","ZONA":"GRANDES ESCENARIOS","LOCALIDAD":"Teusaquillo","TIPO":"ESCENARIO DEPORTIVO","CODIGO":"13-128"},"geometry":{"type":"MultiPolygon","coordinates":[[[[-74.077063,4.649725],[-74.076999,4.64985],[-74.076778,4.649689],[-74.076628,4.649276],[-74.07674,4.648902],[-74.077084,4.648642],[-74.07713,4.648781],[-74.077632,4.648891],[-74.077809,4.649273],[-74.077573,4.649695],[-74.077063,4.649725]]]]}},{"type":"Feature","properties":{"PARQUE":"VIRGILIO BARCO","ZONA":"GRANDES ESCENARIOS","LOCALIDAD":"Teusaquillo","TIPO":"PARQUE METROPOLITANO","CODIGO":"13-088"},"geometry":{"type":"MultiPolygon","coordinates":[[[[-74.090834,4.653585],[-74.091104,4.653476],[-74.088722,4.658681],[-74.088553,4.658824],[-74.088333,4.658802],[-74.086048,4.655516],[-74.090834,4.653585]]]]}},{"type":"Feature","properties":{"PARQUE":"SIMON BOLIVAR","ZONA":"GRANDES ESCENARIOS","LOCALIDAD":"Teusaquillo","TIPO":"PARQUE METROPOLITANO","CODIGO":"13-089"},"geometry":{"type":"MultiPolygon","coordinates":[[[[-74.093101,4.665527],[-74.092796,4.66535],[-74.092252,4.664383],[-74.090258,4.661615],[-74.089267,4.659991],[-74.089158,4.659066],[-74.091429,4.653859],[-74.092142,4.652926],[-74.093179,4.652171],[-74.100259,4.657203],[-74.094698,4.664452],[-74.093427,4.665449],[-74.093101,4.665527]]]]}},{"type":"Feature","properties":{"PARQUE":"NARANJOS","ZONA":"ZONA OCCIDENTE","LOCALIDAD":"Bosa","TIPO":"PARQUE ZONAL","CODIGO":"07-035"},"geometry":{"type":"MultiPolygon","coordinates":[[[[-74.192246,4.607284],[-74.191417,4.607568],[-74.191305,4.607228],[-74.191663,4.607093],[-74.191548,4.606739],[-74.192193,4.606522],[-74.19209,4.605993],[-74.192333,4.606039],[-74.192129,4.607033],[-74.193483,4.607336],[-74.193324,4.608122],[-74.19256,4.608092],[-74.192246,4.607284]]]]}},{"type":"Feature","properties":{"PARQUE":"LA PALESTINA","ZONA":"ZONA OCCIDENTE","LOCALIDAD":"Bosa","TIPO":"PARQUE VECINAL","CODIGO":"10-094"},"geometry":{"type":"MultiPolygon","coordinates":[[[[-74.092947,4.70058],[-74.092963,4.700156],[-74.093067,4.700156],[-74.093107,4.700979],[-74.092944,4.700977],[-74.092947,4.70058]]]]}},{"type":"Feature","properties":{"PARQUE":"LA PALESTINA","ZONA":"ZONA OCCIDENTE","LOCALIDAD":"Bosa","TIPO":"PARQUE VECINAL","CODIGO":"10-090"},"geometry":{"type":"MultiPolygon","coordinates":[[[[-74.093297,4.697955],[-74.093542,4.698055],[-74.093527,4.6982],[-74.09322,4.698191],[-74.093297,4.697955]]],[[[-74.09309,4.697823],[-74.093296,4.69793],[-74.093221,4.698142],[-74.093009,4.697885],[-74.09309,4.697823]]]]}},{"type":"Feature","properties":{"PARQUE":"LA PALESTINA","ZONA":"ZONA OCCIDENTE","LOCALIDAD":"Bosa","TIPO":"PARQUE VECINAL","CODIGO":"07-459"},"geometry":{"type":"MultiPolygon","coordinates":[[[[-74.192274,4.610161],[-74.192402,4.610547],[-74.19149,4.610775],[-74.191457,4.610578],[-74.192274,4.610161]]]]}},{"type":"Feature","properties":{"PARQUE":"LA PALESTINA","ZONA":"ZONA OCCIDENTE","LOCALIDAD":"Bosa","TIPO":"PARQUE DE BOLSILLO","CODIGO":"10-092"},"geometry":{"type":"MultiPolygon","coordinates":[[[[-74.092211,4.69901],[-74.091901,4.699013],[-74.092084,4.698677],[-74.092268,4.698899],[-74.092211,4.69901]]]]}},{"type":"Feature","properties":{"PARQUE":"CLARELANDIA","ZONA":"ZONA OCCIDENTE","LOCALIDAD":"Bosa","TIPO":"PARQUE ZONAL","CODIGO":"07-163"},"geometry":{"type":"MultiPolygon","coordinates":[[[[-74.179433,4.611732],[-74.180166,4.61093],[-74.181332,4.612028],[-74.180844,4.612576],[-74.179433,4.611732]]],[[[-74.181598,4.610413],[-74.181766,4.610674],[-74.180899,4.61146],[-74.180665,4.611245],[-74.181598,4.610413]]]]}},{"type":"Feature","properties":{"PARQUE":"CLARELANDIA","ZONA":"ZONA OCCIDENTE","LOCALIDAD":"Bosa","TIPO":"PARQUE VECINAL","CODIGO":"08-003"},"geometry":{"type":"MultiPolygon","coordinates":[[[[-74.179187,4.612031],[-74.179241,4.611966],[-74.180592,4.612753],[-74.180541,4.612849],[-74.180118,4.612992],[-74.179187,4.612031]]]]}},{"type":"Feature","properties":{"PARQUE":"EL RÍO SAN JOSÉ DE MARYLAND","ZONA":"ZONA OCCIDENTE","LOCALIDAD":"Bosa","TIPO":"PARQUE ZONAL","CODIGO":"07-164"},"geometry":{"type":"MultiPolygon","coordinates":[[[[-74.202403,4.616925],[-74.202371,4.617167],[-74.202702,4.617257],[-74.202514,4.61767],[-74.202464,4.618492],[-74.202182,4.618858],[-74.201511,4.618991],[-74.201091,4.618138],[-74.200755,4.616432],[-74.20159,4.616229],[-74.202144,4.615704],[-74.202403,4.616925]]]]}},{"type":"Feature","properties":{"PARQUE":"EL RECREO","ZONA":"ZONA OCCIDENTE","LOCALIDAD":"Bosa","TIPO":"PARQUE ZONAL","CODIGO":"07-260"},"geometry":{"type":"MultiPolygon","coordinates":[[[[-74.201831,4.637013],[-74.201665,4.636705],[-74.200487,4.637364],[-74.200263,4.636947],[-74.20284,4.635587],[-74.20336,4.636742],[-74.202539,4.637186],[-74.202245,4.636639],[-74.201849,4.636853],[-74.202143,4.637405],[-74.202064,4.637445],[-74.201831,4.637013]]],[[[-74.199598,4.629407],[-74.199832,4.62928],[-74.200673,4.631145],[-74.200109,4.631401],[-74.199136,4.629657],[-74.199598,4.629407]]],[[[-74.200631,4.631323],[-74.200733,4.631277],[-74.200934,4.631723],[-74.200554,4.631879],[-74.200329,4.631461],[-74.200631,4.631323]]],[[[-74.200964,4.632736],[-74.200727,4.632296],[-74.20112,4.632135],[-74.201406,4.632769],[-74.201271,4.63283],[-74.201177,4.632655],[-74.201058,4.63272],[-74.201147,4.632886],[-74.201065,4.632923],[-74.200964,4.632736]]],[[[-74.201362,4.632909],[-74.201603,4.632846],[-74.20259,4.635033],[-74.202735,4.635493],[-74.202385,4.635677],[-74.200973,4.633168],[-74.201362,4.632909]]],[[[-74.203463,4.636667],[-74.202939,4.635543],[-74.205263,4.634508],[-74.20542,4.634852],[-74.204643,4.635207],[-74.204855,4.635673],[-74.204774,4.63571],[-74.204679,4.635516],[-74.203866,4.635886],[-74.204102,4.636395],[-74.203463,4.636667]]],[[[-74.203373,4.636899],[-74.204179,4.638558],[-74.204005,4.638652],[-74.203122,4.637069],[-74.203373,4.636899]]],[[[-74.206339,4.637718],[-74.206618,4.637592],[-74.206844,4.637987],[-74.204628,4.639284],[-74.204336,4.63864],[-74.206339,4.637718]]]]}},{"type":"Feature","properties":{"PARQUE":"TIBANICA","ZONA":"ZONA OCCIDENTE","LOCALIDAD":"Bosa","TIPO":"PARQUE ZONAL","CODIGO":"07-274"},"geometry":{"type":"MultiPolygon","coordinates":[[[[-74.201818,4.60039],[-74.201399,4.600533],[-74.201209,4.600755],[-74.201335,4.601729],[-74.201526,4.601944],[-74.202441,4.602218],[-74.202444,4.602327],[-74.201313,4.602532],[-74.20121,4.601896],[-74.200122,4.602063],[-74.199785,4.599974],[-74.201818,4.60039]]]]}},{"type":"Feature","properties":{"PARQUE":"LA ESPERANZA","ZONA":"ZONA OCCIDENTE","LOCALIDAD":"Bosa","TIPO":"PARQUE VECINAL","CODIGO":"09-307"},"geometry":{"type":"MultiPolygon","coordinates":[[[[-74.152161,4.695171],[-74.152847,4.694639],[-74.153041,4.694879],[-74.152459,4.695401],[-74.152161,4.695171]]]]}},{"type":"Feature","properties":{"PARQUE":"LA ESPERANZA","ZONA":"ZONA OCCIDENTE","LOCALIDAD":"Bosa","TIPO":"PARQUE VECINAL","CODIGO":"09-308"},"geometry":{"type":"MultiPolygon","coordinates":[[[[-74.154147,4.694022],[-74.153605,4.694418],[-74.153422,4.694193],[-74.153941,4.693796],[-74.154147,4.694022]]]]}},{"type":"Feature","properties":{"PARQUE":"LA ESPERANZA","ZONA":"ZONA OCCIDENTE","LOCALIDAD":"Bosa","TIPO":"PARQUE VECINAL","CODIGO":"09-209"},"geometry":{"type":"MultiPolygon","coordinates":[[[[-74.119896,4.661773],[-74.11942,4.661357],[-74.11922,4.661482],[-74.119676,4.660956],[-74.119545,4.660764],[-74.12002,4.66118],[-74.120221,4.661055],[-74.119764,4.661581],[-74.119896,4.661773]]]]}},{"type":"Feature","properties":{"PARQUE":"CAMPO VERDE","ZONA":"ZONA OCCIDENTE","LOCALIDAD":"Bosa","TIPO":"PARQUE ZONAL","CODIGO":"07-436"},"geometry":{"type":"MultiPolygon","coordinates":[[[[-74.210981,4.626269],[-74.210071,4.62661],[-74.209962,4.626368],[-74.210842,4.625964],[-74.210448,4.625092],[-74.211015,4.624835],[-74.211974,4.626907],[-74.21139,4.62717],[-74.210981,4.626269]]],[[[-74.210092,4.624305],[-74.210008,4.624118],[-74.209124,4.62452],[-74.209008,4.624264],[-74.209887,4.623861],[-74.209503,4.623003],[-74.210082,4.622738],[-74.210959,4.624692],[-74.210388,4.62496],[-74.210092,4.624305]]]]}},{"type":"Feature","properties":{"PARQUE":"TECHO","ZONA":"ZONA OCCIDENTE","LOCALIDAD":"Kennedy","TIPO":"PARQUE VECINAL","CODIGO":"08-465"},"geometry":{"type":"MultiPolygon","coordinates":[[[[-74.1465,4.625475],[-74.146494,4.625357],[-74.14661,4.625475],[-74.146692,4.625387],[-74.147157,4.625821],[-74.146946,4.626055],[-74.146477,4.625618],[-74.1465,4.625475]]]]}},{"type":"Feature","properties":{"PARQUE":"TECHO","ZONA":"ZONA OCCIDENTE","LOCALIDAD":"Kennedy","TIPO":"PARQUE VECINAL","CODIGO":"08-092"},"geometry":{"type":"MultiPolygon","coordinates":[[[[-74.145286,4.625808],[-74.145212,4.625491],[-74.14533,4.625364],[-74.145612,4.625631],[-74.145286,4.625808]]]]}},{"type":"Feature","properties":{"PARQUE":"TIMIZA 2","ZONA":"ZONA OCCIDENTE","LOCALIDAD":"Kennedy","TIPO":"PARQUE METROPOLITANO","CODIGO":"08-219"},"geometry":{"type":"MultiPolygon","coordinates":[[[[-74.151977,4.610112],[-74.152178,4.609151],[-74.151024,4.608503],[-74.150498,4.607446],[-74.151379,4.607293],[-74.151189,4.607058],[-74.151341,4.606712],[-74.151733,4.606826],[-74.152035,4.607086],[-74.152852,4.606977],[-74.156331,4.60735],[-74.156939,4.606743],[-74.157925,4.606202],[-74.158537,4.606488],[-74.156672,4.608596],[-74.156736,4.608813],[-74.156912,4.60886],[-74.155633,4.61019],[-74.156718,4.611476],[-74.155776,4.612285],[-74.154764,4.612484],[-74.153794,4.612127],[-74.153261,4.611377],[-74.153153,4.610912],[-74.151977,4.610112]]]]}},{"type":"Feature","properties":{"PARQUE":"PATIO BONITO","ZONA":"ZONA OCCIDENTE","LOCALIDAD":"Kennedy","TIPO":"PARQUE ZONAL","CODIGO":"08-034"},"geometry":{"type":"MultiPolygon","coordinates":[[[[-74.164342,4.640619],[-74.164869,4.641287],[-74.164348,4.64174],[-74.163978,4.641241],[-74.1641,4.641149],[-74.16393,4.640917],[-74.164342,4.640619]]]]}},{"type":"Feature","properties":{"PARQUE":"PATIO BONITO","ZONA":"ZONA OCCIDENTE","LOCALIDAD":"Kennedy","TIPO":"PARQUE DE BOLSILLO","CODIGO":"08-147"},"geometry":{"type":"MultiPolygon","coordinates":[[[[-74.166319,4.635852],[-74.166491,4.635721],[-74.166601,4.635861],[-74.166426,4.635993],[-74.166319,4.635852]]]]}},{"type":"Feature","properties":{"PARQUE":"CASTILLA","ZONA":"ZONA OCCIDENTE","LOCALIDAD":"Kennedy","TIPO":"PARQUE ZONAL","CODIGO":"08-200"},"geometry":{"type":"MultiPolygon","coordinates":[[[[-74.139294,4.639755],[-74.138554,4.639383],[-74.138888,4.638555],[-74.139806,4.638947],[-74.139627,4.639328],[-74.13984,4.639486],[-74.139635,4.639904],[-74.139294,4.639755]]]]}},{"type":"Feature","properties":{"PARQUE":"CASTILLA","ZONA":"ZONA OCCIDENTE","LOCALIDAD":"Kennedy","TIPO":"PARQUE DE BOLSILLO","CODIGO":"08-090"},"geometry":{"type":"MultiPolygon","coordinates":[[[[-74.141841,4.637488],[-74.142005,4.63754],[-74.1419,4.637708],[-74.141778,4.637665],[-74.141841,4.637488]]]]}},{"type":"Feature","properties":{"PARQUE":"CASTILLA","ZONA":"ZONA OCCIDENTE","LOCALIDAD":"Kennedy","TIPO":"PARQUE VECINAL","CODIGO":"08-142"},"geometry":{"type":"MultiPolygon","coordinates":[[[[-74.140912,4.637763],[-74.140757,4.637707],[-74.140945,4.637722],[-74.141006,4.637295],[-74.141556,4.637488],[-74.141372,4.637927],[-74.140912,4.637763]]]]}},{"type":"Feature","properties":{"PARQUE":"CASTILLA","ZONA":"ZONA OCCIDENTE","LOCALIDAD":"Kennedy","TIPO":"PARQUE VECINAL","CODIGO":"08-030"},"geometry":{"type":"MultiPolygon","coordinates":[[[[-74.142093,4.641592],[-74.143481,4.639344],[-74.143936,4.639677],[-74.142919,4.641097],[-74.143605,4.641591],[-74.143471,4.641779],[-74.142858,4.641335],[-74.141902,4.642669],[-74.141606,4.642425],[-74.142093,4.641592]]],[[[-74.143486,4.638957],[-74.143546,4.638852],[-74.143706,4.63894],[-74.1446,4.637378],[-74.145156,4.637748],[-74.14407,4.63937],[-74.143486,4.638957]]]]}},{"type":"Feature","properties":{"PARQUE":"RINCON DE LOS ANGELES","ZONA":"#N/A","LOCALIDAD":"Kennedy","TIPO":"PARQUE DE BOLSILLO","CODIGO":"08-456"},"geometry":{"type":"MultiPolygon","coordinates":[[[[-74.145097,4.631965],[-74.145249,4.631969],[-74.14523,4.632202],[-74.145082,4.632188],[-74.145097,4.631965]]]]}},{"type":"Feature","properties":{"PARQUE":"RINCON DE LOS ANGELES","ZONA":"#N/A","LOCALIDAD":"Kennedy","TIPO":"PARQUE VECINAL","CODIGO":"08-479"},"geometry":{"type":"MultiPolygon","coordinates":[[[[-74.145701,4.632779],[-74.146214,4.632492],[-74.146384,4.632513],[-74.146453,4.631822],[-74.147527,4.631921],[-74.148146,4.63266],[-74.147902,4.632891],[-74.147532,4.632151],[-74.147281,4.632295],[-74.147125,4.631974],[-74.146467,4.632311],[-74.146555,4.632487],[-74.145726,4.632906],[-74.145701,4.632779]]]]}},{"type":"Feature","properties":{"PARQUE":"RINCON DE LOS ANGELES","ZONA":"#N/A","LOCALIDAD":"Kennedy","TIPO":"PARQUE VECINAL","CODIGO":"08-457"},"geometry":{"type":"MultiPolygon","coordinates":[[[[-74.141186,4.634566],[-74.14088,4.634685],[-74.141065,4.635035],[-74.140955,4.635094],[-74.141809,4.636523],[-74.141642,4.636612],[-74.140669,4.635006],[-74.141245,4.633436],[-74.141382,4.633491],[-74.141587,4.63407],[-74.141333,4.634197],[-74.1412,4.634061],[-74.141024,4.634132],[-74.140947,4.634476],[-74.141186,4.634566]]],[[[-74.142166,4.636701],[-74.143056,4.636165],[-74.142655,4.636614],[-74.142511,4.636505],[-74.142243,4.636859],[-74.142166,4.636701]]],[[[-74.141518,4.634393],[-74.141186,4.634566],[-74.14131,4.634322],[-74.141518,4.634393]]],[[[-74.141848,4.636924],[-74.141824,4.636886],[-74.141903,4.636849],[-74.141902,4.63685],[-74.14188,4.63688],[-74.141855,4.636913],[-74.141848,4.636924]]]]}},{"type":"Feature","properties":{"PARQUE":"CAYETANO CAÑIZARES","ZONA":"ZONA OCCIDENTE","LOCALIDAD":"Kennedy","TIPO":"PARQUE METROPOLITANO","CODIGO":"08-241"},"geometry":{"type":"MultiPolygon","coordinates":[[[[-74.160978,4.626944],[-74.160718,4.626788],[-74.159748,4.626692],[-74.15939,4.626372],[-74.162177,4.623336],[-74.16338,4.622583],[-74.163988,4.623783],[-74.162929,4.624288],[-74.161651,4.625789],[-74.160978,4.626944]]]]}},{"type":"Feature","properties":{"PARQUE":"LA AMISTAD","ZONA":"ZONA OCCIDENTE","LOCALIDAD":"Kennedy","TIPO":"PARQUE ZONAL","CODIGO":"08-355"},"geometry":{"type":"MultiPolygon","coordinates":[[[[-74.156635,4.616634],[-74.156982,4.618594],[-74.15651,4.618678],[-74.156163,4.616689],[-74.156635,4.616634]]]]}},{"type":"Feature","properties":{"PARQUE":"GILMA JIMÉNEZ","ZONA":"ZONA OCCIDENTE","LOCALIDAD":"Kennedy","TIPO":"PARQUE ZONAL","CODIGO":"08-552"},"geometry":{"type":"MultiPolygon","coordinates":[[[[-74.175263,4.625485],[-74.175153,4.625595],[-74.173739,4.623521],[-74.17374,4.623337],[-74.173612,4.623339],[-74.173424,4.623065],[-74.173682,4.622903],[-74.173585,4.622761],[-74.173403,4.622827],[-74.174354,4.62217],[-74.174779,4.622277],[-74.175033,4.622155],[-74.17615,4.623754],[-74.176205,4.624017],[-74.175263,4.625485]]]]}},{"type":"Feature","properties":{"PARQUE":"IGUALDAD","ZONA":"ZONA OCCIDENTE","LOCALIDAD":"Kennedy","TIPO":"PARQUE ZONAL","CODIGO":"08-212"},"geometry":{"type":"MultiPolygon","coordinates":[[[[-74.127045,4.628762],[-74.12727,4.626369],[-74.126617,4.626208],[-74.126729,4.624749],[-74.12694,4.624731],[-74.12781,4.62483],[-74.128191,4.625355],[-74.127862,4.628674],[-74.127369,4.62863],[-74.127322,4.629069],[-74.127009,4.629036],[-74.127045,4.628762]]],[[[-74.126446,4.622487],[-74.126414,4.622227],[-74.12663,4.622231],[-74.126593,4.622805],[-74.127056,4.622901],[-74.127034,4.622997],[-74.127236,4.623032],[-74.127215,4.623236],[-74.127389,4.623265],[-74.127197,4.624655],[-74.126714,4.624606],[-74.126446,4.622487]]]]}},{"type":"Feature","properties":{"PARQUE":"DINDALITO","ZONA":"ZONA OCCIDENTE","LOCALIDAD":"Kennedy","TIPO":"PARQUE VECINAL","CODIGO":"08-482"},"geometry":{"type":"MultiPolygon","coordinates":[[[[-74.17378,4.638034],[-74.173976,4.638379],[-74.172942,4.638988],[-74.172743,4.638645],[-74.17378,4.638034]]]]}},{"type":"Feature","properties":{"PARQUE":"DINDALITO","ZONA":"ZONA OCCIDENTE","LOCALIDAD":"Kennedy","TIPO":"PARQUE VECINAL","CODIGO":"08-589"},"geometry":{"type":"MultiPolygon","coordinates":[[[[-74.175566,4.641247],[-74.175756,4.641518],[-74.174706,4.64214],[-74.174538,4.641853],[-74.175566,4.641247]]]]}},{"type":"Feature","properties":{"PARQUE":"TINTAL","ZONA":"ZONA OCCIDENTE","LOCALIDAD":"Kennedy","TIPO":"PARQUE METROPOLITANO","CODIGO":"08-109"},"geometry":{"type":"MultiPolygon","coordinates":[[[[-74.154925,4.642146],[-74.155041,4.642059],[-74.156275,4.643805],[-74.154639,4.644921],[-74.153615,4.643291],[-74.154925,4.642146]]]]}},{"type":"Feature","properties":{"PARQUE":"AUTOPISTA SUR PAVCO","ZONA":"ZONA OCCIDENTE","LOCALIDAD":"Kennedy","TIPO":"PARQUE ZONAL","CODIGO":"07-152"},"geometry":{"type":"MultiPolygon","coordinates":[[[[-74.16404,4.596958],[-74.162897,4.596954],[-74.163475,4.596169],[-74.164254,4.596186],[-74.164337,4.596668],[-74.164103,4.596664],[-74.16404,4.596958]]],[[[-74.164623,4.59615],[-74.165183,4.596158],[-74.165176,4.596698],[-74.16452,4.596691],[-74.164623,4.59615]]]]}},{"type":"Feature","properties":{"PARQUE":"MARSELLA","ZONA":"ZONA OCCIDENTE","LOCALIDAD":"Kennedy","TIPO":"PARQUE VECINAL","CODIGO":"08-066"},"geometry":{"type":"MultiPolygon","coordinates":[[[[-74.12604,4.632758],[-74.125586,4.634053],[-74.125787,4.634178],[-74.125497,4.634056],[-74.126019,4.632745],[-74.125698,4.632513],[-74.126782,4.62981],[-74.128287,4.629969],[-74.12762,4.631508],[-74.127024,4.631266],[-74.126898,4.631555],[-74.126684,4.632091],[-74.127278,4.632341],[-74.126431,4.634573],[-74.126273,4.634466],[-74.126757,4.633227],[-74.12604,4.632758]]]]}},{"type":"Feature","properties":{"PARQUE":"SAN IGNACIO","ZONA":"ZONA OCCIDENTE","LOCALIDAD":"Kennedy","TIPO":"PARQUE ZONAL","CODIGO":"08-791"},"geometry":{"type":"MultiPolygon","coordinates":[[[[-74.161025,4.651922],[-74.161212,4.651818],[-74.162054,4.653187],[-74.161248,4.65365],[-74.160494,4.652466],[-74.161025,4.651922]]]]}},{"type":"Feature","properties":{"PARQUE":"SAUZALITO","ZONA":"GRANDES ESCENARIOS","LOCALIDAD":"Fontibón","TIPO":"PARQUE ZONAL","CODIGO":"09-111"},"geometry":{"type":"MultiPolygon","coordinates":[[[[-74.111669,4.654318],[-74.11145,4.6539],[-74.111465,4.65355],[-74.112156,4.652627],[-74.113758,4.653992],[-74.112114,4.654139],[-74.111714,4.654388],[-74.111669,4.654318]]]]}},{"type":"Feature","properties":{"PARQUE":"ZONA FRANCA","ZONA":"GRANDES ESCENARIOS","LOCALIDAD":"Fontibón","TIPO":"PARQUE METROPOLITANO","CODIGO":"09-125"},"geometry":{"type":"MultiPolygon","coordinates":[[[[-74.168271,4.672133],[-74.167938,4.67131],[-74.165217,4.67027],[-74.161033,4.669828],[-74.162319,4.667522],[-74.16306,4.667521],[-74.164276,4.667816],[-74.165719,4.668419],[-74.168924,4.669076],[-74.169512,4.669344],[-74.169846,4.6698],[-74.170139,4.670885],[-74.169632,4.671596],[-74.168591,4.672212],[-74.16831,4.672268],[-74.168271,4.672133]]]]}},{"type":"Feature","properties":{"PARQUE":"ATAHUALPA","ZONA":"GRANDES ESCENARIOS","LOCALIDAD":"Fontibón","TIPO":"PARQUE ZONAL","CODIGO":"09-104"},"geometry":{"type":"MultiPolygon","coordinates":[[[[-74.144054,4.689134],[-74.145441,4.687969],[-74.146745,4.689552],[-74.145833,4.690119],[-74.145496,4.690185],[-74.144054,4.689134]]]]}},{"type":"Feature","properties":{"PARQUE":"VILLA MAYOR","ZONA":"ZONA CENTRO","LOCALIDAD":"Antonio Nariño","TIPO":"PARQUE VECINAL","CODIGO":"15-064"},"geometry":{"type":"MultiPolygon","coordinates":[[[[-74.121872,4.589771],[-74.120933,4.589668],[-74.121195,4.589601],[-74.122037,4.589835],[-74.121872,4.589771]]]]}},{"type":"Feature","properties":{"PARQUE":"VILLA MAYOR","ZONA":"ZONA CENTRO","LOCALIDAD":"Antonio Nariño","TIPO":"PARQUE VECINAL","CODIGO":"15-035"},"geometry":{"type":"MultiPolygon","coordinates":[[[[-74.119423,4.59061],[-74.119771,4.590546],[-74.119835,4.590896],[-74.119488,4.590958],[-74.119423,4.59061]]]]}},{"type":"Feature","properties":{"PARQUE":"VILLA MAYOR","ZONA":"ZONA CENTRO","LOCALIDAD":"Antonio Nariño","TIPO":"PARQUE VECINAL","CODIGO":"15-044"},"geometry":{"type":"MultiPolygon","coordinates":[[[[-74.121979,4.590728],[-74.12244,4.590646],[-74.122501,4.590997],[-74.122041,4.591079],[-74.121979,4.590728]]]]}},{"type":"Feature","properties":{"PARQUE":"VILLA MAYOR","ZONA":"ZONA CENTRO","LOCALIDAD":"Antonio Nariño","TIPO":"PARQUE VECINAL","CODIGO":"15-045"},"geometry":{"type":"MultiPolygon","coordinates":[[[[-74.122011,4.59269],[-74.122217,4.592651],[-74.12228,4.593],[-74.12182,4.593087],[-74.121757,4.592738],[-74.122011,4.59269]]]]}},{"type":"Feature","properties":{"PARQUE":"LA FRAGUA","ZONA":"ZONA CENTRO","LOCALIDAD":"Antonio Nariño","TIPO":"PARQUE ZONAL","CODIGO":"15-040"},"geometry":{"type":"MultiPolygon","coordinates":[[[[-74.108505,4.596919],[-74.105242,4.595336],[-74.106324,4.594619],[-74.106458,4.594722],[-74.106965,4.59418],[-74.107316,4.594936],[-74.106909,4.595202],[-74.107212,4.595454],[-74.106909,4.595783],[-74.107276,4.596281],[-74.107692,4.595979],[-74.108351,4.596811],[-74.108545,4.596643],[-74.108781,4.597021],[-74.108505,4.596919]]]]}},{"type":"Feature","properties":{"PARQUE":"LA FRAGUA","ZONA":"ZONA CENTRO","LOCALIDAD":"Antonio Nariño","TIPO":"PARQUE DE BOLSILLO","CODIGO":"08-555"},"geometry":{"type":"MultiPolygon","coordinates":[[[[-74.130902,4.606889],[-74.130747,4.606783],[-74.130905,4.606555],[-74.131089,4.606673],[-74.130902,4.606889]]]]}},{"type":"Feature","properties":{"PARQUE":"RENACIMIENTO","ZONA":"ZONA CENTRO","LOCALIDAD":"Mártires","TIPO":"PARQUE METROPOLITANO","CODIGO":"14-036"},"geometry":{"type":"MultiPolygon","coordinates":[[[[-74.076652,4.620491],[-74.076074,4.619631],[-74.076259,4.619517],[-74.076345,4.619644],[-74.07636,4.619533],[-74.078079,4.618713],[-74.078583,4.619465],[-74.076652,4.620491]]]]}},{"type":"Feature","properties":{"PARQUE":"SANTA ISABEL","ZONA":"ZONA CENTRO","LOCALIDAD":"Mártires","TIPO":"PARQUE ZONAL","CODIGO":"14-009"},"geometry":{"type":"MultiPolygon","coordinates":[[[[-74.098808,4.597787],[-74.098306,4.598427],[-74.097739,4.59798],[-74.09824,4.597339],[-74.098808,4.597787]]],[[[-74.099881,4.598637],[-74.099712,4.598855],[-74.098724,4.598071],[-74.098891,4.597857],[-74.099881,4.598637]]],[[[-74.100042,4.598755],[-74.101035,4.599539],[-74.100861,4.599762],[-74.099868,4.598978],[-74.100042,4.598755]]],[[[-74.10118,4.600698],[-74.100612,4.60025],[-74.101074,4.599656],[-74.101642,4.600097],[-74.10118,4.600698]]]]}},{"type":"Feature","properties":{"PARQUE":"SANTA ISABEL","ZONA":"ZONA CENTRO","LOCALIDAD":"Mártires","TIPO":"PARQUE VECINAL","CODIGO":"15-021"},"geometry":{"type":"MultiPolygon","coordinates":[[[[-74.104364,4.595378],[-74.105219,4.595768],[-74.104852,4.59623],[-74.10414,4.59566],[-74.104364,4.595378]]]]}},{"type":"Feature","properties":{"PARQUE":"SANTA ISABEL","ZONA":"ZONA CENTRO","LOCALIDAD":"Mártires","TIPO":"PARQUE DE BOLSILLO","CODIGO":"14-056"},"geometry":{"type":"MultiPolygon","coordinates":[[[[-74.096901,4.597092],[-74.097354,4.597208],[-74.097266,4.597334],[-74.096901,4.597092]]]]}},{"type":"Feature","properties":{"PARQUE":"EDUARDO SANTOS","ZONA":"ZONA CENTRO","LOCALIDAD":"Mártires","TIPO":"PARQUE ZONAL","CODIGO":"14-030"},"geometry":{"type":"MultiPolygon","coordinates":[[[[-74.089729,4.598188],[-74.089818,4.597948],[-74.090471,4.598094],[-74.090448,4.598185],[-74.090827,4.598415],[-74.090095,4.599084],[-74.089577,4.598636],[-74.089729,4.598188]]]]}},{"type":"Feature","properties":{"PARQUE":"EDUARDO SANTOS","ZONA":"ZONA CENTRO","LOCALIDAD":"Mártires","TIPO":"PARQUE VECINAL","CODIGO":"14-074"},"geometry":{"type":"MultiPolygon","coordinates":[[[[-74.088706,4.592359],[-74.089172,4.592194],[-74.088812,4.592501],[-74.088706,4.592359]]],[[[-74.089795,4.592543],[-74.089574,4.59242],[-74.089573,4.592294],[-74.089783,4.592372],[-74.089795,4.592543]]],[[[-74.089691,4.592736],[-74.089795,4.592608],[-74.089795,4.592974],[-74.089687,4.592974],[-74.089691,4.592736]]]]}},{"type":"Feature","properties":{"PARQUE":"TERCER MILENIO","ZONA":"ZONA CENTRO","LOCALIDAD":"Mártires","TIPO":"PARQUE METROPOLITANO","CODIGO":"03-085"},"geometry":{"type":"MultiPolygon","coordinates":[[[[-74.082034,4.595757],[-74.083148,4.596067],[-74.084337,4.597137],[-74.08432,4.597379],[-74.082293,4.600101],[-74.079318,4.598286],[-74.081072,4.595403],[-74.08138,4.5953],[-74.082034,4.595757]]]]}},{"type":"Feature","properties":{"PARQUE":"LACHES","ZONA":"ZONA CENTRO","LOCALIDAD":"Mártires","TIPO":"PARQUE ZONAL","CODIGO":"03-014"},"geometry":{"type":"MultiPolygon","coordinates":[[[[-74.066019,4.584934],[-74.065577,4.583536],[-74.065709,4.583436],[-74.066146,4.583599],[-74.066095,4.583764],[-74.066507,4.584652],[-74.066498,4.58488],[-74.067042,4.58581],[-74.066787,4.585936],[-74.066529,4.585898],[-74.066019,4.584934]]],[[[-74.068436,4.589241],[-74.068306,4.589164],[-74.068416,4.589096],[-74.067293,4.5882],[-74.067306,4.588008],[-74.066877,4.587867],[-74.066798,4.58767],[-74.066942,4.587419],[-74.066723,4.586138],[-74.06679,4.586013],[-74.06721,4.585927],[-74.067454,4.586914],[-74.067595,4.586991],[-74.067387,4.587194],[-74.067634,4.587549],[-74.067871,4.587384],[-74.067998,4.587566],[-74.067875,4.587684],[-74.067867,4.587982],[-74.068451,4.58873],[-74.068436,4.589241]]]]}},{"type":"Feature","properties":{"PARQUE":"ALQUERIA","ZONA":"ZONA CENTRO","LOCALIDAD":"Puente Aranda","TIPO":"ESCENARIO DEPORTIVO","CODIGO":"16-024"},"geometry":{"type":"MultiPolygon","coordinates":[[[[-74.134218,4.595867],[-74.134505,4.595431],[-74.135174,4.595966],[-74.134277,4.597324],[-74.133567,4.596857],[-74.134218,4.595867]]],[[[-74.135129,4.596853],[-74.134828,4.596654],[-74.135251,4.596013],[-74.135551,4.596211],[-74.135129,4.596853]]]]}},{"type":"Feature","properties":{"PARQUE":"CIUDAD MONTES","ZONA":"ZONA CENTRO","LOCALIDAD":"Puente Aranda","TIPO":"PARQUE ZONAL","CODIGO":"16-112"},"geometry":{"type":"MultiPolygon","coordinates":[[[[-74.116117,4.603266],[-74.115657,4.603824],[-74.113696,4.602358],[-74.114569,4.601186],[-74.1149,4.601437],[-74.114997,4.601303],[-74.115144,4.60141],[-74.115606,4.600779],[-74.117253,4.603249],[-74.116772,4.603843],[-74.116117,4.603266]]]]}},{"type":"Feature","properties":{"PARQUE":"JAZMÍN","ZONA":"ZONA CENTRO","LOCALIDAD":"Puente Aranda","TIPO":"PARQUE ZONAL","CODIGO":"16-204"},"geometry":{"type":"MultiPolygon","coordinates":[[[[-74.11691,4.610179],[-74.116713,4.610478],[-74.115377,4.609815],[-74.114654,4.609153],[-74.114112,4.609397],[-74.11405,4.609316],[-74.114779,4.60834],[-74.117203,4.609664],[-74.11691,4.610179]]]]}},{"type":"Feature","properties":{"PARQUE":"AGUA VIVA","ZONA":"ZONA CENTRO","LOCALIDAD":"Puente Aranda","TIPO":"PARQUE ZONAL PROPUESTO","CODIGO":"16-221"},"geometry":{"type":"MultiPolygon","coordinates":[[[[-74.105317,4.606333],[-74.105731,4.605723],[-74.107672,4.606879],[-74.106846,4.607648],[-74.105317,4.606333]]]]}},{"type":"Feature","properties":{"PARQUE":"INDUSTRIAL","ZONA":"ZONA CENTRO","LOCALIDAD":"Puente Aranda","TIPO":"PARQUE VECINAL","CODIGO":"16-416"},"geometry":{"type":"MultiPolygon","coordinates":[[[[-74.099336,4.616548],[-74.098874,4.617095],[-74.098596,4.616845],[-74.099054,4.616305],[-74.099336,4.616548]]]]}},{"type":"Feature","properties":{"PARQUE":"TEJAR","ZONA":"ZONA CENTRO","LOCALIDAD":"Puente Aranda","TIPO":"PARQUE VECINAL","CODIGO":"16-213"},"geometry":{"type":"MultiPolygon","coordinates":[[[[-74.124411,4.607781],[-74.124106,4.60746],[-74.124183,4.607395],[-74.124307,4.60752],[-74.124591,4.607231],[-74.12455,4.607396],[-74.124907,4.607757],[-74.124711,4.607646],[-74.124389,4.607964],[-74.124307,4.607881],[-74.124411,4.607781]]]]}},{"type":"Feature","properties":{"PARQUE":"VILLA DE LOS ALPES","ZONA":"ZONA CENTRO","LOCALIDAD":"San Cristóbal","TIPO":"PARQUE ZONAL","CODIGO":"04-075"},"geometry":{"type":"MultiPolygon","coordinates":[[[[-74.098209,4.56281],[-74.098241,4.562485],[-74.097918,4.561878],[-74.098624,4.560966],[-74.099005,4.561597],[-74.099334,4.561826],[-74.098967,4.562527],[-74.098687,4.562507],[-74.098407,4.563033],[-74.098194,4.56292],[-74.098209,4.56281]]]]}},{"type":"Feature","properties":{"PARQUE":"VILLA DE LOS ALPES","ZONA":"ZONA CENTRO","LOCALIDAD":"San Cristóbal","TIPO":"PARQUE VECINAL","CODIGO":"04-286"},"geometry":{"type":"MultiPolygon","coordinates":[[[[-74.099353,4.56354],[-74.099694,4.562889],[-74.099834,4.562962],[-74.099623,4.563434],[-74.099688,4.563918],[-74.099353,4.56354]]]]}},{"type":"Feature","properties":{"PARQUE":"VILLA DE LOS ALPES","ZONA":"ZONA CENTRO","LOCALIDAD":"San Cristóbal","TIPO":"PARQUE VECINAL","CODIGO":"04-287"},"geometry":{"type":"MultiPolygon","coordinates":[[[[-74.097989,4.564233],[-74.097675,4.563684],[-74.098081,4.56375],[-74.098056,4.564175],[-74.098589,4.564261],[-74.098276,4.564535],[-74.097989,4.564233]]]]}},{"type":"Feature","properties":{"PARQUE":"VILLA DE LOS ALPES","ZONA":"ZONA CENTRO","LOCALIDAD":"San Cristóbal","TIPO":"PARQUE VECINAL","CODIGO":"04-182"},"geometry":{"type":"MultiPolygon","coordinates":[[[[-74.097896,4.559563],[-74.097327,4.559423],[-74.096592,4.559001],[-74.096981,4.558517],[-74.097817,4.558186],[-74.097763,4.559018],[-74.098039,4.559088],[-74.097896,4.559563]]]]}},{"type":"Feature","properties":{"PARQUE":"GAITÁN CORTES","ZONA":"ZONA CENTRO","LOCALIDAD":"San Cristóbal","TIPO":"PARQUE ZONAL","CODIGO":"04-103"},"geometry":{"type":"MultiPolygon","coordinates":[[[[-74.090361,4.559259],[-74.090151,4.559547],[-74.088853,4.558867],[-74.088349,4.558877],[-74.088461,4.558522],[-74.088164,4.558334],[-74.087859,4.558286],[-74.087736,4.55869],[-74.087206,4.558514],[-74.08743,4.557648],[-74.088958,4.557635],[-74.090558,4.558976],[-74.090361,4.559259]]]]}},{"type":"Feature","properties":{"PARQUE":"CEFE SAN CRISTOBAL","ZONA":"ZONA CENTRO","LOCALIDAD":"San Cristóbal","TIPO":"PARQUE METROPOLITANO","CODIGO":"04-127"},"geometry":{"type":"MultiPolygon","coordinates":[[[[-74.085688,4.575667],[-74.084756,4.57547],[-74.084169,4.574897],[-74.083232,4.574415],[-74.083197,4.573732],[-74.082698,4.573779],[-74.08256,4.573241],[-74.082849,4.572184],[-74.083028,4.572101],[-74.084644,4.572537],[-74.085644,4.572885],[-74.08568,4.573065],[-74.085796,4.572928],[-74.086228,4.573205],[-74.086892,4.573946],[-74.087147,4.574461],[-74.086304,4.575351],[-74.085822,4.57572],[-74.085688,4.575667]]]]}},{"type":"Feature","properties":{"PARQUE":"VELODROMO","ZONA":"ZONA CENTRO","LOCALIDAD":"San Cristóbal","TIPO":"PARQUE METROPOLITANO","CODIGO":"04-196"},"geometry":{"type":"MultiPolygon","coordinates":[[[[-74.087287,4.574282],[-74.088146,4.57332],[-74.08809,4.572386],[-74.088215,4.572127],[-74.089018,4.572161],[-74.090054,4.573099],[-74.090018,4.573393],[-74.089779,4.57373],[-74.089309,4.573763],[-74.089165,4.573944],[-74.088875,4.573974],[-74.088795,4.574223],[-74.088447,4.574266],[-74.087994,4.574895],[-74.087461,4.574736],[-74.087226,4.574378],[-74.087287,4.574282]]]]}},{"type":"Feature","properties":{"PARQUE":"LA VICTORIA","ZONA":"ZONA CENTRO","LOCALIDAD":"San Cristóbal","TIPO":"PARQUE ZONAL","CODIGO":"04-122"},"geometry":{"type":"MultiPolygon","coordinates":[[[[-74.095913,4.555427],[-74.095156,4.554709],[-74.095384,4.554167],[-74.095617,4.55419],[-74.096108,4.553886],[-74.095999,4.553545],[-74.096292,4.553481],[-74.096785,4.555372],[-74.095913,4.555427]]]]}},{"type":"Feature","properties":{"PARQUE":"MONSERRATE","ZONA":"ZONA CENTRO","LOCALIDAD":"Santa Fe","TIPO":"PARQUE METROPOLITANO","CODIGO":"03-035"},"geometry":{"type":"MultiPolygon","coordinates":[[[[-74.056407,4.62353],[-74.05589,4.623468],[-74.055491,4.622754],[-74.053754,4.622552],[-74.05352,4.622207],[-74.053125,4.622394],[-74.052404,4.622076],[-74.051065,4.622103],[-74.049505,4.621668],[-74.04918,4.621417],[-74.04929,4.620855],[-74.049161,4.620487],[-74.051413,4.618877],[-74.051805,4.617997],[-74.052083,4.617723],[-74.052382,4.616624],[-74.0524,4.615997],[-74.052115,4.615693],[-74.052153,4.615097],[-74.051866,4.6149],[-74.05165,4.61406],[-74.051785,4.613643],[-74.051637,4.613552],[-74.051926,4.613136],[-74.051938,4.612807],[-74.052223,4.612214],[-74.051586,4.611232],[-74.0517,4.609868],[-74.051612,4.608942],[-74.051862,4.608592],[-74.052504,4.608292],[-74.05281,4.607558],[-74.053074,4.607341],[-74.053699,4.607572],[-74.054579,4.607596],[-74.055125,4.607505],[-74.055889,4.607047],[-74.055725,4.606914],[-74.0561,4.606078],[-74.055957,4.604689],[-74.061133,4.603163],[-74.061429,4.603481],[-74.061572,4.603049],[-74.059508,4.602008],[-74.058889,4.601398],[-74.058822,4.601253],[-74.05892,4.601116],[-74.059095,4.601442],[-74.059639,4.601891],[-74.06077,4.602227],[-74.061187,4.602536],[-74.061707,4.60251],[-74.062243,4.602119],[-74.062491,4.602123],[-74.062589,4.603138],[-74.064098,4.60307],[-74.06376,4.604951],[-74.064026,4.605414],[-74.064191,4.606203],[-74.064381,4.60799],[-74.064649,4.607894],[-74.064814,4.607969],[-74.064414,4.608384],[-74.064271,4.608736],[-74.063921,4.608919],[-74.064115,4.609138],[-74.064087,4.609274],[-74.063921,4.609575],[-74.063503,4.609902],[-74.063911,4.610078],[-74.063611,4.610223],[-74.063145,4.610837],[-74.063272,4.611059],[-74.063262,4.611419],[-74.062884,4.612484],[-74.063018,4.61359],[-74.062614,4.614391],[-74.062898,4.614732],[-74.062867,4.615065],[-74.062593,4.615126],[-74.062503,4.61553],[-74.06084,4.618145],[-74.060793,4.6184],[-74.061219,4.618564],[-74.061379,4.618372],[-74.061324,4.619395],[-74.060719,4.620162],[-74.060024,4.620444],[-74.059797,4.620693],[-74.058897,4.620935],[-74.058517,4.621761],[-74.057905,4.622209],[-74.057605,4.623128],[-74.056701,4.62329],[-74.056407,4.62353]]]]}},{"type":"Feature","properties":{"PARQUE":"CRUCES","ZONA":"ZONA CENTRO","LOCALIDAD":"Santa Fe","TIPO":"PARQUE ZONAL","CODIGO":"03-036"},"geometry":{"type":"MultiPolygon","coordinates":[[[[-74.079009,4.586276],[-74.078896,4.586195],[-74.078812,4.586311],[-74.078639,4.586272],[-74.078153,4.585925],[-74.078501,4.585142],[-74.078796,4.585234],[-74.079458,4.585843],[-74.079178,4.586399],[-74.079009,4.586276]]]]}},{"type":"Feature","properties":{"PARQUE":"INDEPENDENCIA","ZONA":"ZONA CENTRO","LOCALIDAD":"Santa Fe","TIPO":"PARQUE METROPOLITANO","CODIGO":"03-039"},"geometry":{"type":"MultiPolygon","coordinates":[[[[-74.068362,4.612075],[-74.068148,4.612081],[-74.068147,4.61196],[-74.067908,4.612029],[-74.067653,4.611724],[-74.067526,4.61189],[-74.067672,4.611352],[-74.067591,4.610714],[-74.067778,4.610312],[-74.068232,4.610152],[-74.068735,4.610449],[-74.068879,4.610264],[-74.068267,4.609818],[-74.068104,4.60956],[-74.069884,4.610824],[-74.069593,4.610841],[-74.069923,4.610885],[-74.069762,4.611534],[-74.069496,4.611242],[-74.069682,4.611591],[-74.069198,4.612177],[-74.069014,4.611839],[-74.068843,4.611789],[-74.068626,4.611856],[-74.068547,4.61202],[-74.06879,4.612381],[-74.068362,4.612075]]]]}},{"type":"Feature","properties":{"PARQUE":"PLAZA DE TOROS","ZONA":"ZONA CENTRO","LOCALIDAD":"Santa Fe","TIPO":"ESCENARIO DEPORTIVO","CODIGO":"03-093"},"geometry":{"type":"MultiPolygon","coordinates":[[[[-74.068086,4.612317],[-74.068388,4.612297],[-74.068615,4.612476],[-74.0686,4.613306],[-74.067964,4.613526],[-74.067664,4.613358],[-74.067567,4.613031],[-74.068086,4.612317]]]]}},{"type":"Feature","properties":{"PARQUE":"ILIMANI","ZONA":"ZONA SUR","LOCALIDAD":"Ciudad Bolívar","TIPO":"PARQUE ZONAL","CODIGO":"19-346"},"geometry":{"type":"MultiPolygon","coordinates":[[[[-74.164244,4.545365],[-74.163484,4.546335],[-74.162662,4.547054],[-74.161873,4.547501],[-74.161247,4.548555],[-74.160683,4.548351],[-74.161212,4.546986],[-74.162581,4.546109],[-74.16363,4.544907],[-74.164244,4.545365]]]]}},{"type":"Feature","properties":{"PARQUE":"MIRADOR ILIMANI","ZONA":"ZONA SUR","LOCALIDAD":"Ciudad Bolívar","TIPO":"PARQUE ZONAL","CODIGO":"19-788"},"geometry":{"type":"MultiPolygon","coordinates":[[[[-74.157646,4.553235],[-74.157846,4.552957],[-74.157822,4.552803],[-74.158647,4.553609],[-74.15848,4.554415],[-74.158365,4.55447],[-74.158777,4.554595],[-74.158716,4.554777],[-74.157799,4.554363],[-74.157585,4.553895],[-74.157646,4.553235]]]]}},{"type":"Feature","properties":{"PARQUE":"ARBORIZADORA ALTA","ZONA":"ZONA SUR","LOCALIDAD":"Ciudad Bolívar","TIPO":"PARQUE ZONAL","CODIGO":"19-188"},"geometry":{"type":"MultiPolygon","coordinates":[[[[-74.161757,4.56747],[-74.16176,4.56732],[-74.162043,4.567399],[-74.162648,4.567187],[-74.163166,4.5675],[-74.162776,4.568093],[-74.161938,4.567719],[-74.161757,4.56747]]]]}},{"type":"Feature","properties":{"PARQUE":"ARBORIZADORA ALTA","ZONA":"ZONA SUR","LOCALIDAD":"Ciudad Bolívar","TIPO":"PARQUE METROPOLITANO","CODIGO":"19-229"},"geometry":{"type":"MultiPolygon","coordinates":[[[[-74.165524,4.567514],[-74.165214,4.567361],[-74.165501,4.56695],[-74.16542,4.566343],[-74.164935,4.565748],[-74.165344,4.565104],[-74.165514,4.565317],[-74.165675,4.565192],[-74.165254,4.564645],[-74.166177,4.564794],[-74.165937,4.565089],[-74.166157,4.56534],[-74.166077,4.56548],[-74.166242,4.565701],[-74.166177,4.565813],[-74.166457,4.565974],[-74.16679,4.565394],[-74.16743,4.56576],[-74.167524,4.565598],[-74.167763,4.565733],[-74.168335,4.564644],[-74.168049,4.564401],[-74.168023,4.564183],[-74.16746,4.563852],[-74.167737,4.56337],[-74.167315,4.563128],[-74.167219,4.56329],[-74.166986,4.563158],[-74.166583,4.563868],[-74.166279,4.563664],[-74.166129,4.563888],[-74.165253,4.563361],[-74.164715,4.56431],[-74.164523,4.56424],[-74.164524,4.563998],[-74.164317,4.563937],[-74.16454,4.563893],[-74.164485,4.563645],[-74.16477,4.563585],[-74.164651,4.562998],[-74.164918,4.562338],[-74.164773,4.562061],[-74.164882,4.561882],[-74.164762,4.561784],[-74.164613,4.561947],[-74.164485,4.561867],[-74.164042,4.562562],[-74.163891,4.561836],[-74.163177,4.562051],[-74.163129,4.561752],[-74.162818,4.561516],[-74.162809,4.559191],[-74.166144,4.557801],[-74.16668,4.559083],[-74.166996,4.559385],[-74.170948,4.566155],[-74.170515,4.566146],[-74.170716,4.565954],[-74.170565,4.565703],[-74.169844,4.565212],[-74.16873,4.564032],[-74.168384,4.56436],[-74.168745,4.564743],[-74.168192,4.564944],[-74.168187,4.565053],[-74.168784,4.564921],[-74.168998,4.565601],[-74.16832,4.566195],[-74.168039,4.566203],[-74.167992,4.566364],[-74.167624,4.566352],[-74.16755,4.566618],[-74.167235,4.566608],[-74.167029,4.566291],[-74.166655,4.566435],[-74.165968,4.566176],[-74.16588,4.566377],[-74.165603,4.566254],[-74.165529,4.566425],[-74.165648,4.566622],[-74.165517,4.566859],[-74.165845,4.566998],[-74.165406,4.567241],[-74.165524,4.567514]]]]}},{"type":"Feature","properties":{"PARQUE":"ARBORIZADORA ALTA","ZONA":"ZONA SUR","LOCALIDAD":"Ciudad Bolívar","TIPO":"PARQUE VECINAL","CODIGO":"19-382"},"geometry":{"type":"MultiPolygon","coordinates":[[[[-74.158375,4.569368],[-74.158306,4.570233],[-74.15815,4.569884],[-74.158375,4.569368]]]]}},{"type":"Feature","properties":{"PARQUE":"ARBORIZADORA ALTA","ZONA":"ZONA SUR","LOCALIDAD":"Ciudad Bolívar","TIPO":"PARQUE VECINAL","CODIGO":"19-055"},"geometry":{"type":"MultiPolygon","coordinates":[[[[-74.156212,4.571271],[-74.156072,4.571393],[-74.156057,4.571128],[-74.155206,4.571173],[-74.155066,4.570893],[-74.154401,4.570365],[-74.154146,4.569335],[-74.154532,4.569547],[-74.154673,4.56981],[-74.15449,4.569991],[-74.154644,4.570167],[-74.154553,4.570384],[-74.154696,4.570522],[-74.155136,4.570093],[-74.154842,4.570651],[-74.15515,4.570905],[-74.155279,4.570758],[-74.155365,4.570828],[-74.1557,4.570403],[-74.155793,4.570576],[-74.155577,4.570753],[-74.155535,4.571079],[-74.156419,4.571101],[-74.156428,4.570834],[-74.156515,4.571064],[-74.156394,4.571465],[-74.156212,4.571271]]],[[[-74.155314,4.570123],[-74.15523,4.570132],[-74.155565,4.57006],[-74.155444,4.570223],[-74.155314,4.570123]]],[[[-74.155844,4.570138],[-74.155688,4.570013],[-74.155967,4.570063],[-74.156297,4.570453],[-74.156193,4.57045],[-74.156197,4.570286],[-74.155734,4.570277],[-74.155844,4.570138]]],[[[-74.155734,4.571584],[-74.156086,4.571566],[-74.155748,4.571841],[-74.155734,4.571584]]]]}},{"type":"Feature","properties":{"PARQUE":"CANDELARIA LA NUEVA","ZONA":"ZONA SUR","LOCALIDAD":"Ciudad Bolívar","TIPO":"PARQUE ZONAL","CODIGO":"19-189"},"geometry":{"type":"MultiPolygon","coordinates":[[[[-74.146796,4.568213],[-74.146866,4.568113],[-74.14774,4.568731],[-74.147499,4.569109],[-74.146597,4.568506],[-74.146796,4.568213]]]]}},{"type":"Feature","properties":{"PARQUE":"CANDELARIA LA NUEVA","ZONA":"ZONA SUR","LOCALIDAD":"Ciudad Bolívar","TIPO":"PARQUE VECINAL","CODIGO":"19-014"},"geometry":{"type":"MultiPolygon","coordinates":[[[[-74.14743,4.567955],[-74.147105,4.567761],[-74.147329,4.567426],[-74.147669,4.567659],[-74.14743,4.567955]]]]}},{"type":"Feature","properties":{"PARQUE":"MEISSEN","ZONA":"ZONA SUR","LOCALIDAD":"Ciudad Bolívar","TIPO":"PARQUE ZONAL","CODIGO":"19-230"},"geometry":{"type":"MultiPolygon","coordinates":[[[[-74.135677,4.557846],[-74.135471,4.557881],[-74.135602,4.557112],[-74.136587,4.557448],[-74.136424,4.557913],[-74.135819,4.558003],[-74.135827,4.557853],[-74.135677,4.557846]]]]}},{"type":"Feature","properties":{"PARQUE":"LA ESTANCIA","ZONA":"ZONA SUR","LOCALIDAD":"Ciudad Bolívar","TIPO":"PARQUE ZONAL","CODIGO":"19-231"},"geometry":{"type":"MultiPolygon","coordinates":[[[[-74.174092,4.59364],[-74.173014,4.593645],[-74.173012,4.593344],[-74.173637,4.593339],[-74.173656,4.5928],[-74.174437,4.592796],[-74.174452,4.594305],[-74.174158,4.594247],[-74.174092,4.59364]]]]}},{"type":"Feature","properties":{"PARQUE":"EL TALLER","ZONA":"ZONA SUR","LOCALIDAD":"Ciudad Bolívar","TIPO":"PARQUE ZONAL","CODIGO":"19-348"},"geometry":{"type":"MultiPolygon","coordinates":[[[[-74.160165,4.585523],[-74.159891,4.58488],[-74.16045,4.58533],[-74.160958,4.584721],[-74.160971,4.58355],[-74.161167,4.583295],[-74.16111,4.585011],[-74.161507,4.585816],[-74.160534,4.586289],[-74.160165,4.585523]]]]}},{"type":"Feature","properties":{"PARQUE":"ALTOS DE LA ESTANCIA","ZONA":"ZONA SUR","LOCALIDAD":"Ciudad Bolívar","TIPO":"PARQUE ZONAL","CODIGO":"19-756"},"geometry":{"type":"MultiPolygon","coordinates":[[[[-74.176804,4.583118],[-74.176213,4.580957],[-74.1775,4.580782],[-74.177649,4.580522],[-74.178364,4.580176],[-74.178559,4.581228],[-74.17779,4.581333],[-74.177876,4.581823],[-74.178642,4.581727],[-74.178772,4.5825],[-74.177164,4.582749],[-74.177078,4.583067],[-74.176804,4.583118]]]]}},{"type":"Feature","properties":{"PARQUE":"BUENAVISTA PORVENIR","ZONA":"ZONA SUR","LOCALIDAD":"Ciudad Bolívar","TIPO":"PARQUE ZONAL","CODIGO":"19-347"},"geometry":{"type":"MultiPolygon","coordinates":[[[[-74.140428,4.540818],[-74.141872,4.540994],[-74.141865,4.541634],[-74.139414,4.541648],[-74.139454,4.540685],[-74.140428,4.540818]]]]}},{"type":"Feature","properties":{"PARQUE":"EL REDENTOR","ZONA":"ZONA SUR","LOCALIDAD":"Ciudad Bolívar","TIPO":"PARQUE ZONAL","CODIGO":"06-099"},"geometry":{"type":"MultiPolygon","coordinates":[[[[-74.143546,4.578059],[-74.144369,4.577504],[-74.144839,4.577988],[-74.143379,4.579023],[-74.143546,4.578059]]]]}},{"type":"Feature","properties":{"PARQUE":"SIERRA MORENA","ZONA":"ZONA SUR","LOCALIDAD":"Ciudad Bolívar","TIPO":"PARQUE ZONAL","CODIGO":"19-190"},"geometry":{"type":"MultiPolygon","coordinates":[[[[-74.167623,4.576553],[-74.167753,4.576504],[-74.167986,4.57582],[-74.168212,4.575914],[-74.168821,4.576712],[-74.168962,4.57717],[-74.16772,4.577868],[-74.167371,4.577259],[-74.167623,4.576553]]]]}},{"type":"Feature","properties":{"PARQUE":"SIERRA MORENA","ZONA":"ZONA SUR","LOCALIDAD":"Ciudad Bolívar","TIPO":"PARQUE VECINAL","CODIGO":"19-746"},"geometry":{"type":"MultiPolygon","coordinates":[[[[-74.167677,4.575549],[-74.166497,4.575056],[-74.165683,4.574106],[-74.166763,4.573143],[-74.166644,4.573614],[-74.166375,4.57384],[-74.16627,4.573694],[-74.165791,4.574066],[-74.166444,4.574963],[-74.166982,4.57462],[-74.167038,4.575074],[-74.167681,4.575494],[-74.167797,4.575358],[-74.168017,4.575683],[-74.167677,4.575549]]]]}},{"type":"Feature","properties":{"PARQUE":"SIERRA MORENA","ZONA":"ZONA SUR","LOCALIDAD":"Ciudad Bolívar","TIPO":"PARQUE VECINAL","CODIGO":"05-222"},"geometry":{"type":"MultiPolygon","coordinates":[[[[-74.09853,4.500029],[-74.097627,4.499997],[-74.098542,4.500005],[-74.098605,4.500581],[-74.098473,4.500351],[-74.09853,4.500029]]],[[[-74.095997,4.499596],[-74.095781,4.499327],[-74.096081,4.499397],[-74.095997,4.499596]]],[[[-74.096302,4.499478],[-74.096109,4.499398],[-74.09752,4.500077],[-74.096302,4.499478]]],[[[-74.097544,4.5],[-74.097582,4.499999],[-74.097583,4.500003],[-74.097589,4.500036],[-74.09761,4.500149],[-74.097656,4.500395],[-74.097664,4.500439],[-74.097574,4.500336],[-74.097564,4.500325],[-74.097561,4.500321],[-74.097555,4.500314],[-74.097554,4.500301],[-74.097549,4.500164],[-74.097549,4.500149],[-74.097547,4.500082],[-74.097544,4.500015],[-74.097544,4.500007],[-74.097544,4.5]]]]}},{"type":"Feature","properties":{"PARQUE":"SIERRA MORENA","ZONA":"ZONA SUR","LOCALIDAD":"Ciudad Bolívar","TIPO":"PARQUE DE BOLSILLO","CODIGO":"19-773"},"geometry":{"type":"MultiPolygon","coordinates":[[[[-74.171482,4.577637],[-74.170843,4.577328],[-74.171462,4.576642],[-74.171418,4.576531],[-74.171575,4.576692],[-74.170995,4.577347],[-74.171156,4.577492],[-74.171399,4.577411],[-74.171718,4.577568],[-74.171779,4.578117],[-74.171482,4.577637]]],[[[-74.171656,4.577444],[-74.171431,4.577371],[-74.171598,4.577182],[-74.17176,4.577326],[-74.171656,4.577444]]],[[[-74.171781,4.577408],[-74.171977,4.577513],[-74.171851,4.577655],[-74.17171,4.577488],[-74.171781,4.577408]]]]}},{"type":"Feature","properties":{"PARQUE":"NUEVO MUZU","ZONA":"ZONA SUR","LOCALIDAD":"Tunjuelito","TIPO":"PARQUE ZONAL","CODIGO":"06-017"},"geometry":{"type":"MultiPolygon","coordinates":[[[[-74.146966,4.586615],[-74.146549,4.585383],[-74.147436,4.585117],[-74.147631,4.585994],[-74.146831,4.58619],[-74.146953,4.58649],[-74.147333,4.586404],[-74.147794,4.588776],[-74.146966,4.586615]]],[[[-74.146533,4.585959],[-74.146497,4.585851],[-74.144609,4.586669],[-74.144562,4.586554],[-74.146505,4.585373],[-74.147767,4.588788],[-74.147637,4.588847],[-74.146533,4.585959]]]]}},{"type":"Feature","properties":{"PARQUE":"NUEVO MUZU","ZONA":"ZONA SUR","LOCALIDAD":"Tunjuelito","TIPO":"PARQUE VECINAL","CODIGO":"06-101"},"geometry":{"type":"MultiPolygon","coordinates":[[[[-74.149877,4.585809],[-74.149443,4.584031],[-74.148332,4.584284],[-74.148445,4.584781],[-74.146578,4.585297],[-74.149046,4.583824],[-74.149535,4.583115],[-74.149644,4.583065],[-74.149775,4.583317],[-74.150749,4.582827],[-74.151243,4.583599],[-74.150324,4.584365],[-74.150236,4.585193],[-74.150052,4.585229],[-74.150165,4.585837],[-74.149902,4.5859],[-74.149877,4.585809]]]]}},{"type":"Feature","properties":{"PARQUE":"CEFE TUNAL","ZONA":"ZONA SUR","LOCALIDAD":"Tunjuelito","TIPO":"PARQUE METROPOLITANO","CODIGO":"06-063"},"geometry":{"type":"MultiPolygon","coordinates":[[[[-74.130382,4.575592],[-74.12906,4.570857],[-74.129995,4.570703],[-74.135183,4.568688],[-74.136703,4.568024],[-74.137615,4.567445],[-74.137591,4.567343],[-74.137935,4.567296],[-74.139299,4.573121],[-74.133319,4.575564],[-74.133005,4.574528],[-74.130382,4.575592]]]]}},{"type":"Feature","properties":{"PARQUE":"AURORA","ZONA":"ZONA SUR","LOCALIDAD":"Usme","TIPO":"PARQUE ZONAL","CODIGO":"05-002"},"geometry":{"type":"MultiPolygon","coordinates":[[[[-74.121685,4.521358],[-74.121467,4.521156],[-74.121135,4.521378],[-74.120727,4.520944],[-74.120466,4.520941],[-74.120699,4.520895],[-74.120702,4.520646],[-74.120973,4.520645],[-74.120982,4.519983],[-74.122124,4.52009],[-74.12237,4.520552],[-74.122441,4.52074],[-74.121784,4.521447],[-74.121685,4.521358]]],[[[-74.120971,4.519454],[-74.121681,4.519324],[-74.121897,4.519983],[-74.120969,4.5199],[-74.120971,4.519454]]]]}},{"type":"Feature","properties":{"PARQUE":"VALLES DE CAFAM","ZONA":"ZONA SUR","LOCALIDAD":"Usme","TIPO":"PARQUE ZONAL","CODIGO":"05-003"},"geometry":{"type":"MultiPolygon","coordinates":[[[[-74.117658,4.508682],[-74.117651,4.50833],[-74.118306,4.508214],[-74.118651,4.508407],[-74.118204,4.508129],[-74.117792,4.508249],[-74.117369,4.507703],[-74.117633,4.507729],[-74.118497,4.508209],[-74.118831,4.508625],[-74.117782,4.509295],[-74.117658,4.508682]]]]}},{"type":"Feature","properties":{"PARQUE":"LA ANDREA","ZONA":"ZONA SUR","LOCALIDAD":"Usme","TIPO":"PARQUE ZONAL","CODIGO":"05-004"},"geometry":{"type":"MultiPolygon","coordinates":[[[[-74.110732,4.510225],[-74.110889,4.510213],[-74.110844,4.509629],[-74.111509,4.509671],[-74.111509,4.510335],[-74.110964,4.510386],[-74.110982,4.510509],[-74.110785,4.510531],[-74.110732,4.510225]]]]}},{"type":"Feature","properties":{"PARQUE":"LA ANDREA","ZONA":"ZONA SUR","LOCALIDAD":"Usme","TIPO":"PARQUE VECINAL","CODIGO":"05-214"},"geometry":{"type":"MultiPolygon","coordinates":[[[[-74.11115,4.510946],[-74.111204,4.511224],[-74.110832,4.511226],[-74.110824,4.510956],[-74.11115,4.510946]]]]}},{"type":"Feature","properties":{"PARQUE":"LA ANDREA","ZONA":"ZONA SUR","LOCALIDAD":"Usme","TIPO":"PARQUE VECINAL","CODIGO":"05-049"},"geometry":{"type":"MultiPolygon","coordinates":[[[[-74.112794,4.509776],[-74.113241,4.50981],[-74.113235,4.51037],[-74.112722,4.510367],[-74.112794,4.509776]]]]}},{"type":"Feature","properties":{"PARQUE":"VIRREY SUR","ZONA":"ZONA SUR","LOCALIDAD":"Usme","TIPO":"PARQUE ZONAL","CODIGO":"05-016"},"geometry":{"type":"MultiPolygon","coordinates":[[[[-74.111175,4.501054],[-74.111047,4.500644],[-74.111981,4.500628],[-74.1121,4.5004],[-74.112341,4.500522],[-74.112465,4.500284],[-74.112689,4.500399],[-74.113107,4.499584],[-74.113248,4.499676],[-74.113343,4.500618],[-74.113042,4.500672],[-74.112804,4.501059],[-74.112495,4.500849],[-74.112152,4.500939],[-74.111698,4.501534],[-74.111175,4.501054]]]]}},{"type":"Feature","properties":{"PARQUE":"VILLA ALEMANA","ZONA":"ZONA SUR","LOCALIDAD":"Usme","TIPO":"PARQUE ZONAL","CODIGO":"05-087"},"geometry":{"type":"MultiPolygon","coordinates":[[[[-74.11241,4.491434],[-74.112799,4.492559],[-74.111857,4.493745],[-74.110758,4.494176],[-74.110037,4.492652],[-74.110293,4.491998],[-74.11241,4.491434]]]]}},{"type":"Feature","properties":{"PARQUE":"MOLINOS","ZONA":"ZONA SUR","LOCALIDAD":"Rafael Uribe U","TIPO":"PARQUE ZONAL","CODIGO":"18-162"},"geometry":{"type":"MultiPolygon","coordinates":[[[[-74.107583,4.551687],[-74.107628,4.551521],[-74.107911,4.551629],[-74.108016,4.551338],[-74.108109,4.551378],[-74.107885,4.552214],[-74.108168,4.55273],[-74.10781,4.552959],[-74.107373,4.55295],[-74.107319,4.552575],[-74.107583,4.551687]]]]}},{"type":"Feature","properties":{"PARQUE":"QUIROGA","ZONA":"ZONA SUR","LOCALIDAD":"Rafael Uribe U","TIPO":"PARQUE ZONAL","CODIGO":"18-205"},"geometry":{"type":"MultiPolygon","coordinates":[[[[-74.113554,4.581381],[-74.113373,4.581074],[-74.113573,4.58099],[-74.113508,4.580845],[-74.113752,4.580736],[-74.113683,4.580569],[-74.11394,4.580468],[-74.113907,4.580247],[-74.11418,4.581011],[-74.114309,4.580978],[-74.114384,4.581229],[-74.113604,4.581499],[-74.113554,4.581381]]]]}},{"type":"Feature","properties":{"PARQUE":"OLAYA","ZONA":"ZONA SUR","LOCALIDAD":"Rafael Uribe U","TIPO":"PARQUE ZONAL","CODIGO":"18-207"},"geometry":{"type":"MultiPolygon","coordinates":[[[[-74.10533,4.584362],[-74.106194,4.583867],[-74.106065,4.58366],[-74.108434,4.582208],[-74.109517,4.584211],[-74.10533,4.584362]]]]}},{"type":"Feature","properties":{"PARQUE":"PIJAOS","ZONA":"ZONA SUR","LOCALIDAD":"Rafael Uribe U","TIPO":"ESCENARIO DEPORTIVO","CODIGO":"18-090"},"geometry":{"type":"MultiPolygon","coordinates":[[[[-74.102934,4.568131],[-74.102385,4.567355],[-74.103191,4.566583],[-74.1039,4.567311],[-74.10391,4.567558],[-74.104129,4.567795],[-74.103918,4.567967],[-74.103661,4.567949],[-74.103346,4.568404],[-74.102934,4.568131]]]]}},{"type":"Feature","properties":{"PARQUE":"GIMNASIO DEL SUR","ZONA":"ZONA SUR","LOCALIDAD":"Rafael Uribe U","TIPO":"ESCENARIO DEPORTIVO","CODIGO":"18-452"},"geometry":{"type":"MultiPolygon","coordinates":[[[[-74.105548,4.584226],[-74.105322,4.584367],[-74.105184,4.584179],[-74.105425,4.584027],[-74.105548,4.584226]]]]}},{"type":"Feature","properties":{"PARQUE":"LA JOYA","ZONA":"#N/A","LOCALIDAD":"Rafael Uribe U","TIPO":"PARQUE ZONAL","CODIGO":"19-349"},"geometry":{"type":"MultiPolygon","coordinates":[[[[-74.148636,4.53528],[-74.149337,4.53626],[-74.147955,4.536953],[-74.147274,4.536196],[-74.147231,4.535937],[-74.148636,4.53528]]]]}},{"type":"Feature","properties":{"PARQUE":"SAN CAYETANO","ZONA":"#N/A","LOCALIDAD":"Rafael Uribe U","TIPO":"PARQUE ZONAL","CODIGO":"05-236"},"geometry":{"type":"MultiPolygon","coordinates":[[[[-74.089292,4.517192],[-74.089814,4.517299],[-74.090434,4.517826],[-74.090552,4.518145],[-74.089006,4.51781],[-74.089292,4.517192]]]]}},{"type":"Feature","properties":{"PARQUE":"SANTA LUCÍA","ZONA":"ZONA SUR","LOCALIDAD":"Rafael Uribe U","TIPO":"PARQUE METROPOLITANO","CODIGO":"18-073"},"geometry":{"type":"MultiPolygon","coordinates":[[[[-74.119776,4.575157],[-74.119642,4.574984],[-74.119376,4.574997],[-74.119242,4.574333],[-74.119073,4.574335],[-74.119079,4.574231],[-74.118679,4.573976],[-74.118225,4.573992],[-74.117512,4.573689],[-74.117394,4.57384],[-74.11723,4.573467],[-74.120235,4.572925],[-74.120187,4.57222],[-74.121379,4.572227],[-74.12138,4.57207],[-74.121818,4.572009],[-74.122937,4.572508],[-74.122739,4.572956],[-74.123558,4.573448],[-74.123129,4.574476],[-74.122684,4.574832],[-74.122021,4.575086],[-74.121973,4.574905],[-74.121426,4.574415],[-74.121512,4.574249],[-74.122316,4.574112],[-74.12265,4.573847],[-74.121798,4.572601],[-74.121487,4.572939],[-74.120332,4.573626],[-74.120041,4.573518],[-74.120034,4.573701],[-74.12021,4.573837],[-74.119728,4.573592],[-74.11928,4.574031],[-74.119398,4.574164],[-74.119808,4.574213],[-74.119901,4.574564],[-74.119986,4.574543],[-74.12012,4.575081],[-74.119776,4.575157]]]]}},{"type":"Feature","properties":{"PARQUE":"SANTA LUCÍA","ZONA":"ZONA SUR","LOCALIDAD":"Rafael Uribe U","TIPO":"PARQUE VECINAL","CODIGO":"18-454"},"geometry":{"type":"MultiPolygon","coordinates":[[[[-74.125866,4.579368],[-74.125732,4.579736],[-74.125601,4.579487],[-74.125866,4.579368]]],[[[-74.125209,4.579138],[-74.125336,4.579238],[-74.125091,4.579311],[-74.125209,4.579138]]],[[[-74.125203,4.579555],[-74.1254,4.579501],[-74.125282,4.57979],[-74.125203,4.579555]]],[[[-74.125462,4.579688],[-74.125565,4.57981],[-74.125418,4.579813],[-74.125462,4.579688]]]]}}]}